[{"OBJECT_NAME":"STARLINK-11113 [DTC]","OBJECT_ID":"2024-107C","EPOCH":"2025-12-10T06:01:52.081536","MEAN_MOTION":15.69720758,"ECCENTRICITY":0.00012417,"INCLINATION":53.1586,"RA_OF_ASC_NODE":331.7863,"ARG_OF_PERICENTER":82.5829,"MEAN_ANOMALY":277.533,"EPHEMERIS_TYPE":0,"CLASSIFICATION_TYPE":"U","NORAD_CAT_ID":59947,"ELEMENT_SET_NO":999,"REV_AT_EPOCH":8810,"BSTAR":2.670476e-5,"MEAN_MOTION_DOT":2.649e-5,"MEAN_MOTION_DDOT":0},{"OBJECT_NAME":"STARLINK-11123 [DTC]","OBJECT_ID":"2024-107D","EPOCH":"2025-12-10T05:40:50.104992","MEAN_MOTION":15.69714763,"ECCENTRICITY":0.00016063,"INCLINATION":53.1598,"RA_OF_ASC_NODE":332.4351,"ARG_OF_PERICENTER":102.5438,"MEAN_ANOMALY":257.576,"EPHEMERIS_TYPE":0,"CLASSIFICATION_TYPE":"U","NORAD_CAT_ID":59948,"ELEMENT_SET_NO":999,"REV_AT_EPOCH":8815,"BSTAR":1.4759776e-5,"MEAN_MOTION_DOT":1.199e-5,"MEAN_MOTION_DDOT":0},{"OBJECT_NAME":"STARLINK-11138 [DTC]","OBJECT_ID":"2024-107E","EPOCH":"2025-12-10T05:12:35.119296","MEAN_MOTION":15.69711937,"ECCENTRICITY":0.00015656,"INCLINATION":53.158,"RA_OF_ASC_NODE":332.301,"ARG_OF_PERICENTER":96.7342,"MEAN_ANOMALY":263.3854,"EPHEMERIS_TYPE":0,"CLASSIFICATION_TYPE":"U","NORAD_CAT_ID":59949,"ELEMENT_SET_NO":999,"REV_AT_EPOCH":8815,"BSTAR":2.1315348e-5,"MEAN_MOTION_DOT":1.994e-5,"MEAN_MOTION_DDOT":0},{"OBJECT_NAME":"STARLINK-11130 [DTC]","OBJECT_ID":"2024-107F","EPOCH":"2025-12-10T05:33:46.338912","MEAN_MOTION":15.6971072,"ECCENTRICITY":0.00017866,"INCLINATION":53.1593,"RA_OF_ASC_NODE":332.4003,"ARG_OF_PERICENTER":120.7798,"MEAN_ANOMALY":239.3396,"EPHEMERIS_TYPE":0,"CLASSIFICATION_TYPE":"U","NORAD_CAT_ID":59950,"ELEMENT_SET_NO":999,"REV_AT_EPOCH":8809,"BSTAR":1.2496024e-5,"MEAN_MOTION_DOT":9.24e-6,"MEAN_MOTION_DDOT":0},{"OBJECT_NAME":"STARLINK-11124 [DTC]","OBJECT_ID":"2024-107H","EPOCH":"2025-12-10T05:19:38.930304","MEAN_MOTION":15.69710594,"ECCENTRICITY":0.00014548,"INCLINATION":53.159,"RA_OF_ASC_NODE":332.3367,"ARG_OF_PERICENTER":99.6567,"MEAN_ANOMALY":260.4615,"EPHEMERIS_TYPE":0,"CLASSIFICATION_TYPE":"U","NORAD_CAT_ID":59952,"ELEMENT_SET_NO":999,"REV_AT_EPOCH":8816,"BSTAR":6.870557e-6,"MEAN_MOTION_DOT":2.43e-6,"MEAN_MOTION_DDOT":0},{"OBJECT_NAME":"STARLINK-11143 [DTC]","OBJECT_ID":"2024-107J","EPOCH":"2025-12-10T08:00:03.000384","MEAN_MOTION":15.71411939,"ECCENTRICITY":0.00022444,"INCLINATION":53.1545,"RA_OF_ASC_NODE":331.6281,"ARG_OF_PERICENTER":88.3966,"MEAN_ANOMALY":259.7542,"EPHEMERIS_TYPE":0,"CLASSIFICATION_TYPE":"U","NORAD_CAT_ID":59953,"ELEMENT_SET_NO":999,"REV_AT_EPOCH":582,"BSTAR":0.00081940573,"MEAN_MOTION_DOT":0.00107375,"MEAN_MOTION_DDOT":0},{"OBJECT_NAME":"STARLINK-11133 [DTC]","OBJECT_ID":"2024-107K","EPOCH":"2025-12-10T06:30:07.852608","MEAN_MOTION":15.697178,"ECCENTRICITY":0.00013626,"INCLINATION":53.1595,"RA_OF_ASC_NODE":331.9232,"ARG_OF_PERICENTER":74.4309,"MEAN_ANOMALY":285.6859,"EPHEMERIS_TYPE":0,"CLASSIFICATION_TYPE":"U","NORAD_CAT_ID":59954,"ELEMENT_SET_NO":999,"REV_AT_EPOCH":8810,"BSTAR":1.8689018e-5,"MEAN_MOTION_DOT":1.676e-5,"MEAN_MOTION_DDOT":0},{"OBJECT_NAME":"STARLINK-11144 [DTC]","OBJECT_ID":"2024-107L","EPOCH":"2025-12-10T04:51:23.562720","MEAN_MOTION":15.69710263,"ECCENTRICITY":0.00014777,"INCLINATION":53.1604,"RA_OF_ASC_NODE":332.2129,"ARG_OF_PERICENTER":105.2256,"MEAN_ANOMALY":254.8925,"EPHEMERIS_TYPE":0,"CLASSIFICATION_TYPE":"U","NORAD_CAT_ID":59955,"ELEMENT_SET_NO":999,"REV_AT_EPOCH":8815,"BSTAR":8.470068e-6,"MEAN_MOTION_DOT":4.37e-6,"MEAN_MOTION_DDOT":0},{"OBJECT_NAME":"STARLINK-11134 [DTC]","OBJECT_ID":"2024-107M","EPOCH":"2025-12-10T06:15:59.886720","MEAN_MOTION":15.69723843,"ECCENTRICITY":0.00011191,"INCLINATION":53.1589,"RA_OF_ASC_NODE":331.86,"ARG_OF_PERICENTER":71.5326,"MEAN_ANOMALY":288.5814,"EPHEMERIS_TYPE":0,"CLASSIFICATION_TYPE":"U","NORAD_CAT_ID":59956,"ELEMENT_SET_NO":999,"REV_AT_EPOCH":8803,"BSTAR":8.215255e-6,"MEAN_MOTION_DOT":4.07e-6,"MEAN_MOTION_DDOT":0},{"OBJECT_NAME":"STARLINK-11142 [DTC]","OBJECT_ID":"2024-107N","EPOCH":"2025-12-10T06:08:57.024384","MEAN_MOTION":15.69711915,"ECCENTRICITY":0.00014483,"INCLINATION":53.1601,"RA_OF_ASC_NODE":331.8261,"ARG_OF_PERICENTER":80.9981,"MEAN_ANOMALY":279.12,"EPHEMERIS_TYPE":0,"CLASSIFICATION_TYPE":"U","NORAD_CAT_ID":59957,"ELEMENT_SET_NO":999,"REV_AT_EPOCH":8811,"BSTAR":4.255039e-6,"MEAN_MOTION_DOT":-7.4e-7,"MEAN_MOTION_DDOT":0},{"OBJECT_NAME":"STARLINK-31995","OBJECT_ID":"2024-107P","EPOCH":"2025-12-09T19:02:30.478848","MEAN_MOTION":15.30197076,"ECCENTRICITY":0.00012931,"INCLINATION":53.1613,"RA_OF_ASC_NODE":123.0413,"ARG_OF_PERICENTER":79.6755,"MEAN_ANOMALY":280.4391,"EPHEMERIS_TYPE":0,"CLASSIFICATION_TYPE":"U","NORAD_CAT_ID":59958,"ELEMENT_SET_NO":999,"REV_AT_EPOCH":8483,"BSTAR":5.1814742e-5,"MEAN_MOTION_DOT":1.176e-5,"MEAN_MOTION_DDOT":0},{"OBJECT_NAME":"STARLINK-31989","OBJECT_ID":"2024-107Q","EPOCH":"2025-12-09T18:53:23.323200","MEAN_MOTION":15.30195555,"ECCENTRICITY":0.00012365,"INCLINATION":53.1603,"RA_OF_ASC_NODE":123.0046,"ARG_OF_PERICENTER":82.4475,"MEAN_ANOMALY":277.6666,"EPHEMERIS_TYPE":0,"CLASSIFICATION_TYPE":"U","NORAD_CAT_ID":59959,"ELEMENT_SET_NO":999,"REV_AT_EPOCH":8603,"BSTAR":3.9209379e-5,"MEAN_MOTION_DOT":8.02e-6,"MEAN_MOTION_DDOT":0},{"OBJECT_NAME":"STARLINK-31856","OBJECT_ID":"2024-107R","EPOCH":"2025-12-09T22:06:02.898432","MEAN_MOTION":15.30199848,"ECCENTRICITY":0.00014324,"INCLINATION":53.1625,"RA_OF_ASC_NODE":122.4139,"ARG_OF_PERICENTER":92.8075,"MEAN_ANOMALY":267.309,"EPHEMERIS_TYPE":0,"CLASSIFICATION_TYPE":"U","NORAD_CAT_ID":59960,"ELEMENT_SET_NO":999,"REV_AT_EPOCH":8605,"BSTAR":6.9821831e-5,"MEAN_MOTION_DOT":1.709e-5,"MEAN_MOTION_DDOT":0},{"OBJECT_NAME":"STARLINK-31993","OBJECT_ID":"2024-107S","EPOCH":"2025-12-09T19:11:37.542048","MEAN_MOTION":15.30205991,"ECCENTRICITY":0.00011931,"INCLINATION":53.1604,"RA_OF_ASC_NODE":123.0767,"ARG_OF_PERICENTER":79.2705,"MEAN_ANOMALY":280.843,"EPHEMERIS_TYPE":0,"CLASSIFICATION_TYPE":"U","NORAD_CAT_ID":59961,"ELEMENT_SET_NO":999,"REV_AT_EPOCH":8597,"BSTAR":-1.098173e-6,"MEAN_MOTION_DOT":-3.92e-6,"MEAN_MOTION_DDOT":0},{"OBJECT_NAME":"STARLINK-31980","OBJECT_ID":"2024-107T","EPOCH":"2025-12-08T19:51:27.806688","MEAN_MOTION":15.30202682,"ECCENTRICITY":0.00010807,"INCLINATION":53.1594,"RA_OF_ASC_NODE":127.6729,"ARG_OF_PERICENTER":75.7864,"MEAN_ANOMALY":284.3257,"EPHEMERIS_TYPE":0,"CLASSIFICATION_TYPE":"U","NORAD_CAT_ID":59962,"ELEMENT_SET_NO":999,"REV_AT_EPOCH":8588,"BSTAR":-1.6838241e-5,"MEAN_MOTION_DOT":-8.58e-6,"MEAN_MOTION_DDOT":0},{"OBJECT_NAME":"STARLINK-31991","OBJECT_ID":"2024-107U","EPOCH":"2025-12-09T19:07:03.870048","MEAN_MOTION":15.30199065,"ECCENTRICITY":0.0001234,"INCLINATION":53.1609,"RA_OF_ASC_NODE":123.0589,"ARG_OF_PERICENTER":76.1311,"MEAN_ANOMALY":283.9827,"EPHEMERIS_TYPE":0,"CLASSIFICATION_TYPE":"U","NORAD_CAT_ID":59963,"ELEMENT_SET_NO":999,"REV_AT_EPOCH":8603,"BSTAR":5.225564e-5,"MEAN_MOTION_DOT":1.189e-5,"MEAN_MOTION_DDOT":0}]
