STARLINK-11113 [DTC]    
1 59947U 24107C   25344.25129724  .00002649  00000+0  26705-4 0  9992
2 59947  53.1586 331.7863 0001241  82.5829 277.5330 15.69720758 88101
STARLINK-11123 [DTC]    
1 59948U 24107D   25344.23669103  .00001199  00000+0  14760-4 0  9998
2 59948  53.1598 332.4351 0001606 102.5438 257.5760 15.69714763 88158
STARLINK-11138 [DTC]    
1 59949U 24107E   25344.21707314  .00001994  00000+0  21315-4 0  9991
2 59949  53.1580 332.3010 0001565  96.7342 263.3854 15.69711937 88152
STARLINK-11130 [DTC]    
1 59950U 24107F   25344.23178633  .00000924  00000+0  12496-4 0  9993
2 59950  53.1593 332.4003 0001786 120.7798 239.3396 15.69710720 88095
STARLINK-11124 [DTC]    
1 59952U 24107H   25344.22197836  .00000243  00000+0  68706-5 0  9990
2 59952  53.1590 332.3367 0001454  99.6567 260.4615 15.69710594 88162
STARLINK-11143 [DTC]    
1 59953U 24107J   25344.33336806  .00107375  00000+0  81941-3 0  9993
2 59953  53.1545 331.6281 0002244  88.3966 259.7542 15.71411939  5822
STARLINK-11133 [DTC]    
1 59954U 24107K   25344.27092422  .00001676  00000+0  18689-4 0  9997
2 59954  53.1595 331.9232 0001362  74.4309 285.6859 15.69717800 88108
STARLINK-11144 [DTC]    
1 59955U 24107L   25344.20235605  .00000437  00000+0  84701-5 0  9996
2 59955  53.1604 332.2129 0001477 105.2256 254.8925 15.69710263 88153
STARLINK-11134 [DTC]    
1 59956U 24107M   25344.26110980  .00000407  00000+0  82153-5 0  9997
2 59956  53.1589 331.8600 0001119  71.5326 288.5814 15.69723843 88037
STARLINK-11142 [DTC]    
1 59957U 24107N   25344.25621556 -.00000074  00000+0  42550-5 0  9991
2 59957  53.1601 331.8261 0001448  80.9981 279.1200 15.69711915 88113
STARLINK-31995          
1 59958U 24107P   25343.79340832  .00001176  00000+0  51815-4 0  9991
2 59958  53.1613 123.0413 0001293  79.6755 280.4391 15.30197076 84834
STARLINK-31989          
1 59959U 24107Q   25343.78707550  .00000802  00000+0  39209-4 0  9993
2 59959  53.1603 123.0046 0001236  82.4475 277.6666 15.30195555 86031
STARLINK-31856          
1 59960U 24107R   25343.92086688  .00001709  00000+0  69822-4 0  9994
2 59960  53.1625 122.4139 0001432  92.8075 267.3090 15.30199848 86050
STARLINK-31993          
1 59961U 24107S   25343.79974007 -.00000392  00000+0 -10982-5 0  9994
2 59961  53.1604 123.0767 0001193  79.2705 280.8430 15.30205991 85970
STARLINK-31980          
1 59962U 24107T   25342.82740517 -.00000858  00000+0 -16838-4 0  9997
2 59962  53.1594 127.6729 0001080  75.7864 284.3257 15.30202682 85889
STARLINK-31991          
1 59963U 24107U   25343.79657257  .00001189  00000+0  52256-4 0  9993
2 59963  53.1609 123.0589 0001234  76.1311 283.9827 15.30199065 86030
